ASTROCAST-0401          
1 55110U 23001DF  26068.71172895  .00009750  00000+0  37868-3 0  9995
2 55110  97.5547 160.5206 0008142 188.4231 171.6872 15.26258462176022
STARLINK-36524          
1 67452U 26008H   26068.86228837  .00042245  00000+0  15351-2 0  9999
2 67452  43.0011 204.6815 0002449 288.5037  71.5549 15.27595859  9593
